start=new Date('2022-08-25T00:00:00.000Z').valueOf();
sats=[{"TLE_LINE2":"2 46579  53.0549 207.2348 0001742  77.7766 282.3418 15.06398526104793","PERIOD":"95.592","OBJECT_ID":"2020-070AZ","ECCENTRICITY":"0.00017420","GP_ID":"210898852","SITE":"AFETR","ARG_OF_PERICENTER":"77.7766","RA_OF_ASC_NODE":"207.2348","MEAN_ANOMALY":"282.3418","FILE":"3546350","CLASSIFICATION_TYPE":"U","MEAN_ELEMENT_THEORY":"SGP4","LAUNCH_DATE":"2020-10-06","MEAN_MOTION_DOT":"-0.00000182","MEAN_MOTION":"15.06398526","DECAY_DATE":null,"CENTER_NAME":"EARTH","TIME_SYSTEM":"UTC","TLE_LINE1":"1 46579U 20070AZ  22236.44200569 -.00000182  00000-0  67001-5 0  9996","SEMIMAJOR_AXIS":"6925.353","NORAD_CAT_ID":"46579","RCS_SIZE":"LARGE","PERIAPSIS":"546.012","EPOCH":"2022-08-24T10:36:29.291616","INCLINATION":"53.0549","ELEMENT_SET_NO":"999","BSTAR":"0.00000670010000","REV_AT_EPOCH":"10479","OBJECT_NAME":"STARLINK-1705","EPHEMERIS_TYPE":"0","OBJECT_TYPE":"PAYLOAD","APOAPSIS":"548.424","MEAN_MOTION_DDOT":"0.0000000000000","COUNTRY_CODE":"US","REF_FRAME":"TEME"},{"CLASSIFICATION_TYPE":"U","FILE":"3546663","MEAN_ELEMENT_THEORY":"SGP4","LAUNCH_DATE":"2020-10-06","MEAN_MOTION":"15.06399092","MEAN_MOTION_DOT":"0.00000495","CENTER_NAME":"EARTH","DECAY_DATE":null,"PERIOD":"95.592","TLE_LINE2":"2 46580  53.0550 206.4391 0001798  67.9741 292.1439 15.06399092104826","OBJECT_ID":"2020-070BA","SITE":"AFETR","ECCENTRICITY":"0.00017980","GP_ID":"210931204","ARG_OF_PERICENTER":"67.9741","MEAN_ANOMALY":"292.1439","RA_OF_ASC_NODE":"206.4391","BSTAR":"0.00005215700000","REV_AT_EPOCH":"10482","OBJECT_NAME":"STARLINK-1708","OBJECT_TYPE":"PAYLOAD","EPHEMERIS_TYPE":"0","APOAPSIS":"548.462","MEAN_MOTION_DDOT":"0.0000000000000","COUNTRY_CODE":"US","REF_FRAME":"TEME","TIME_SYSTEM":"UTC","SEMIMAJOR_AXIS":"6925.351","TLE_LINE1":"1 46580U 20070BA  22236.61893380  .00000495  00000-0  52157-4 0  9997","NORAD_CAT_ID":"46580","RCS_SIZE":"LARGE","EPOCH":"2022-08-24T14:51:15.880320","PERIAPSIS":"545.971","INCLINATION":"53.0550","ELEMENT_SET_NO":"999"},{"INCLINATION":"53.0535","ELEMENT_SET_NO":"999","RCS_SIZE":"LARGE","EPOCH":"2022-08-24T07:39:20.157984","PERIAPSIS":"545.995","SEMIMAJOR_AXIS":"6925.337","TLE_LINE1":"1 46581U 20070BB  22236.31898331  .00001787  00000-0  13882-3 0  9992","NORAD_CAT_ID":"46581","TIME_SYSTEM":"UTC","REF_FRAME":"TEME","APOAPSIS":"548.408","MEAN_MOTION_DDOT":"0.0000000000000","COUNTRY_CODE":"US","OBJECT_TYPE":"PAYLOAD","EPHEMERIS_TYPE":"0","BSTAR":"0.00013882000000","OBJECT_NAME":"STARLINK-1712","REV_AT_EPOCH":"10484","MEAN_ANOMALY":"287.2052","RA_OF_ASC_NODE":"202.7966","SITE":"AFETR","ECCENTRICITY":"0.00017420","GP_ID":"210899350","ARG_OF_PERICENTER":"72.9127","PERIOD":"95.592","TLE_LINE2":"2 46581  53.0535 202.7966 0001742  72.9127 287.2052 15.06403905104847","OBJECT_ID":"2020-070BB","MEAN_MOTION":"15.06403905","MEAN_MOTION_DOT":"0.00001787","CENTER_NAME":"EARTH","DECAY_DATE":null,"LAUNCH_DATE":"2020-10-06","MEAN_ELEMENT_THEORY":"SGP4","CLASSIFICATION_TYPE":"U","FILE":"3546350"},{"INCLINATION":"53.0543","ELEMENT_SET_NO":"999","RCS_SIZE":"LARGE","EPOCH":"2022-08-24T07:18:06.060384","PERIAPSIS":"546.218","SEMIMAJOR_AXIS":"6925.351","TLE_LINE1":"1 46582U 20070BC  22236.30423681  .00001820  00000-0  14104-3 0  9990","NORAD_CAT_ID":"46582","TIME_SYSTEM":"UTC","REF_FRAME":"TEME","APOAPSIS":"548.215","MEAN_MOTION_DDOT":"0.0000000000000","COUNTRY_CODE":"US","OBJECT_TYPE":"PAYLOAD","EPHEMERIS_TYPE":"0","BSTAR":"0.00014104000000","OBJECT_NAME":"STARLINK-1728","REV_AT_EPOCH":"10484","MEAN_ANOMALY":"288.3058","RA_OF_ASC_NODE":"202.8631","SITE":"AFETR","ECCENTRICITY":"0.00014420","GP_ID":"210900103","ARG_OF_PERICENTER":"71.8087","PERIOD":"95.592","TLE_LINE2":"2 46582  53.0543 202.8631 0001442  71.8087 288.3058 15.06399047104846","OBJECT_ID":"2020-070BC","MEAN_MOTION":"15.06399047","MEAN_MOTION_DOT":"0.00001820","CENTER_NAME":"EARTH","DECAY_DATE":null,"MEAN_ELEMENT_THEORY":"SGP4","LAUNCH_DATE":"2020-10-06","CLASSIFICATION_TYPE":"U","FILE":"3546350"},{"SEMIMAJOR_AXIS":"6925.347","TLE_LINE1":"1 46583U 20070BD  22236.68574406  .00001367  00000-0  11067-3 0  9995","NORAD_CAT_ID":"46583","TIME_SYSTEM":"UTC","INCLINATION":"53.0542","ELEMENT_SET_NO":"999","RCS_SIZE":"LARGE","EPOCH":"2022-08-24T16:27:28.286784","PERIAPSIS":"546.118","OBJECT_TYPE":"PAYLOAD","EPHEMERIS_TYPE":"0","BSTAR":"0.00011067000000","REV_AT_EPOCH":"10461","OBJECT_NAME":"STARLINK-1729","REF_FRAME":"TEME","APOAPSIS":"548.305","MEAN_MOTION_DDOT":"0.0000000000000","COUNTRY_CODE":"US","PERIOD":"95.592","TLE_LINE2":"2 46583  53.0542 221.1461 0001579  76.8139 283.3026 15.06400605104613","OBJECT_ID":"2020-070BD","MEAN_ANOMALY":"283.3026","RA_OF_ASC_NODE":"221.1461","SITE":"AFETR","GP_ID":"210930455","ECCENTRICITY":"0.00015790","ARG_OF_PERICENTER":"76.8139","CLASSIFICATION_TYPE":"U","FILE":"3546663","MEAN_MOTION":"15.06400605","MEAN_MOTION_DOT":"0.00001367","CENTER_NAME":"EARTH","DECAY_DATE":null,"LAUNCH_DATE":"2020-10-06","MEAN_ELEMENT_THEORY":"SGP4"},{"EPHEMERIS_TYPE":"0","OBJECT_TYPE":"PAYLOAD","REV_AT_EPOCH":"10484","OBJECT_NAME":"STARLINK-1732","BSTAR":"0.00001329700000","REF_FRAME":"TEME","COUNTRY_CODE":"US","MEAN_MOTION_DDOT":"0.0000000000000","APOAPSIS":"548.329","NORAD_CAT_ID":"46584","TLE_LINE1":"1 46584U 20070BE  22236.30792841 -.00000083  00000-0  13297-4 0  9993","SEMIMAJOR_AXIS":"6925.353","TIME_SYSTEM":"UTC","ELEMENT_SET_NO":"999","INCLINATION":"53.0543","PERIAPSIS":"546.106","EPOCH":"2022-08-24T07:23:25.014624","RCS_SIZE":"LARGE","FILE":"3546350","CLASSIFICATION_TYPE":"U","DECAY_DATE":null,"CENTER_NAME":"EARTH","MEAN_MOTION_DOT":"-0.00000083","MEAN_MOTION":"15.06398566","LAUNCH_DATE":"2020-10-06","MEAN_ELEMENT_THEORY":"SGP4","OBJECT_ID":"2020-070BE","TLE_LINE2":"2 46584  53.0543 202.8419 0001605  67.1881 292.9278 15.06398566104843","PERIOD":"95.592","MEAN_ANOMALY":"292.9278","RA_OF_ASC_NODE":"202.8419","ARG_OF_PERICENTER":"67.1881","GP_ID":"210898604","ECCENTRICITY":"0.00016050","SITE":"AFETR"},{"MEAN_MOTION_DDOT":"0.0000000000000","APOAPSIS":"548.326","COUNTRY_CODE":"US","REF_FRAME":"TEME","BSTAR":"0.00002818100000","REV_AT_EPOCH":"10484","OBJECT_NAME":"STARLINK-1736","OBJECT_TYPE":"PAYLOAD","EPHEMERIS_TYPE":"0","RCS_SIZE":"LARGE","EPOCH":"2022-08-24T07:48:35.484480","PERIAPSIS":"546.112","INCLINATION":"53.0547","ELEMENT_SET_NO":"999","TIME_SYSTEM":"UTC","SEMIMAJOR_AXIS":"6925.354","TLE_LINE1":"1 46585U 20070BF  22236.32541070  .00000138  00000-0  28181-4 0  9990","NORAD_CAT_ID":"46585","LAUNCH_DATE":"2020-10-06","MEAN_ELEMENT_THEORY":"SGP4","MEAN_MOTION":"15.06398253","MEAN_MOTION_DOT":"0.00000138","CENTER_NAME":"EARTH","DECAY_DATE":null,"CLASSIFICATION_TYPE":"U","FILE":"3546350","SITE":"AFETR","GP_ID":"210899850","ECCENTRICITY":"0.00015980","ARG_OF_PERICENTER":"61.3956","RA_OF_ASC_NODE":"202.7519","MEAN_ANOMALY":"298.7194","PERIOD":"95.592","TLE_LINE2":"2 46585  53.0547 202.7519 0001598  61.3956 298.7194 15.06398253104842","OBJECT_ID":"2020-070BF"},{"EPHEMERIS_TYPE":"0","OBJECT_TYPE":"PAYLOAD","BSTAR":"0.00001276000000","REV_AT_EPOCH":"10484","OBJECT_NAME":"STARLINK-1737","REF_FRAME":"TEME","APOAPSIS":"548.509","MEAN_MOTION_DDOT":"0.0000000000000","COUNTRY_CODE":"US","TLE_LINE1":"1 46586U 20070BG  22236.31530108 -.00000092  00000-0  12760-4 0  9996","SEMIMAJOR_AXIS":"6925.357","NORAD_CAT_ID":"46586","TIME_SYSTEM":"UTC","INCLINATION":"53.0534","ELEMENT_SET_NO":"999","RCS_SIZE":"LARGE","PERIAPSIS":"545.936","EPOCH":"2022-08-24T07:34:02.013312","FILE":"3546350","CLASSIFICATION_TYPE":"U","MEAN_MOTION_DOT":"-0.00000092","MEAN_MOTION":"15.06397084","DECAY_DATE":null,"CENTER_NAME":"EARTH","MEAN_ELEMENT_THEORY":"SGP4","LAUNCH_DATE":"2020-10-06","TLE_LINE2":"2 46586  53.0534 202.8017 0001858  66.2906 293.8277 15.06397084104840","PERIOD":"95.592","OBJECT_ID":"2020-070BG","MEAN_ANOMALY":"293.8277","RA_OF_ASC_NODE":"202.8017","ECCENTRICITY":"0.00018580","GP_ID":"210899604","SITE":"AFETR","ARG_OF_PERICENTER":"66.2906"},{"TLE_LINE1":"1 46588U 20070BJ  22236.62860006  .00001484  00000-0  11851-3 0  9999","SEMIMAJOR_AXIS":"6925.350","NORAD_CAT_ID":"46588","TIME_SYSTEM":"UTC","INCLINATION":"53.0546","ELEMENT_SET_NO":"999","RCS_SIZE":"LARGE","PERIAPSIS":"546.036","EPOCH":"2022-08-24T15:05:11.045184","EPHEMERIS_TYPE":"0","OBJECT_TYPE":"PAYLOAD","BSTAR":"0.00011851000000","REV_AT_EPOCH":"10489","OBJECT_NAME":"STARLINK-1746","REF_FRAME":"TEME","APOAPSIS":"548.394","MEAN_MOTION_DDOT":"0.0000000000000","COUNTRY_CODE":"US","TLE_LINE2":"2 46588  53.0546 201.4032 0001702  67.2061 292.9108 15.06399550104896","PERIOD":"95.592","OBJECT_ID":"2020-070BJ","MEAN_ANOMALY":"292.9108","RA_OF_ASC_NODE":"201.4032","ECCENTRICITY":"0.00017020","GP_ID":"210930954","SITE":"AFETR","ARG_OF_PERICENTER":"67.2061","FILE":"3546663","CLASSIFICATION_TYPE":"U","MEAN_MOTION_DOT":"0.00001484","MEAN_MOTION":"15.06399550","DECAY_DATE":null,"CENTER_NAME":"EARTH","LAUNCH_DATE":"2020-10-06","MEAN_ELEMENT_THEORY":"SGP4"},{"NORAD_CAT_ID":"46589","TLE_LINE1":"1 46589U 20070BK  22236.68758685 -.00000169  00000-0  75524-5 0  9994","SEMIMAJOR_AXIS":"6925.378","TIME_SYSTEM":"UTC","ELEMENT_SET_NO":"999","INCLINATION":"53.0533","PERIAPSIS":"546.096","EPOCH":"2022-08-24T16:30:07.503840","RCS_SIZE":"LARGE","EPHEMERIS_TYPE":"0","OBJECT_TYPE":"PAYLOAD","REV_AT_EPOCH":"10489","OBJECT_NAME":"STARLINK-1749","BSTAR":"0.00000755240000","REF_FRAME":"TEME","COUNTRY_CODE":"US","APOAPSIS":"548.391","MEAN_MOTION_DDOT":"0.0000000000000","OBJECT_ID":"2020-070BK","TLE_LINE2":"2 46589  53.0533 201.1412 0001657  64.8625 295.2536 15.06390285104897","PERIOD":"95.593","MEAN_ANOMALY":"295.2536","RA_OF_ASC_NODE":"201.1412","ARG_OF_PERICENTER":"64.8625","ECCENTRICITY":"0.00016570","GP_ID":"210931205","SITE":"AFETR","FILE":"3546663","CLASSIFICATION_TYPE":"U","DECAY_DATE":null,"CENTER_NAME":"EARTH","MEAN_MOTION_DOT":"-0.00000169","MEAN_MOTION":"15.06390285","LAUNCH_DATE":"2020-10-06","MEAN_ELEMENT_THEORY":"SGP4"}];
